STARLINK-6329           
1 56525U 23065Y   24091.39182916  .00003213  00000+0  25277-3 0  9998
2 56525  43.0016  98.5865 0001097 277.4130  82.6588 15.02543102 50084
STARLINK-6317           
1 56526U 23065Z   24091.46718371  .00000856  00000+0  78400-4 0  9994
2 56526  43.0032  98.2816 0001191 261.9986  98.0722 15.02536692 50096
STARLINK-6335           
1 56527U 23065AA  24091.72532936  .00006214  00000+0  47465-3 0  9995
2 56527  42.9999  96.7771 0001062 260.2636  99.8086 15.02538535 49358
STARLINK-6337           
1 56528U 23065AB  24091.39515345  .00000628  00000+0  61570-4 0  9991
2 56528  43.0020  98.6020 0000885 278.4141  81.6601 15.02543874 50084
STARLINK-6307           
1 56529U 23065AC  24091.38443268  .00001936  00000+0  15833-3 0  9998
2 56529  43.0027  86.3630 0001130 254.7909 105.2808 15.02537227 50229
STARLINK-6318           
1 56530U 23065AD  24091.30600333  .00002743  00000+0  21805-3 0  9993
2 56530  43.0027  73.6196 0001303 266.1433  93.9261 15.02537506 50369
STARLINK-6280           
1 56531U 23065AE  24091.38110783  .00002919  00000+0  23098-3 0  9998
2 56531  43.0031  86.3409 0001719 272.5357  87.5288 15.02545860 50225
STARLINK-6319           
1 56532U 23065AF  24091.39108533 -.00003453  00000+0 -24061-3 0  9997
2 56532  43.0011  86.4140 0001463 284.3146  75.7534 15.02546834 50225
STARLINK-6310           
1 56533U 23065AG  24091.70683236  .00001633  00000+0  13596-3 0  9998
2 56533  43.0010  84.4804 0001096 264.8416  95.2301 15.02534426 49495
STARLINK-6308           
1 56534U 23065AH  24091.38775803  .00003542  00000+0  27708-3 0  9996
2 56534  43.0023  86.3872 0001372 266.4827  93.5858 15.02542107 50223
STARLINK-6309           
1 56535U 23065AJ  24091.44041085  .00018383  00000+0  13718-2 0  9996
2 56535  43.0018 111.9605 0001222 261.5126  98.5578 15.02551452 49932
STARLINK-6312           
1 56536U 23065AK  24091.44151487  .00002110  00000+0  17122-3 0  9990
2 56536  43.0016 111.9705 0001009 271.7055  88.3672 15.02543096 49936
STARLINK-6311           
1 56537U 23065AL  24091.76946889  .00000938  00000+0  84458-4 0  9997
2 56537  43.0011 110.1301 0001067 266.7771  93.2949 15.02536503 49205
STARLINK-6314           
1 56538U 23065AM  24091.67131417 -.00000414  00000+0 -15610-4 0  9996
2 56538  43.0031  84.2243 0001005 273.4734  86.5993 15.02539987 49494
STARLINK-6135           
1 56539U 23065AN  24091.75943830 -.00074781  00000+0 -55589-2 0  9991
2 56539  43.0020 110.0561 0001258 282.9691  77.1011 15.02677587 49206
STARLINK-6136           
1 56540U 23065AP  24091.44486169  .00015397  00000+0  11518-2 0  9996
2 56540  43.0011 111.9964 0001044 266.0162  94.0561 15.02554024 49932
STARLINK-6249           
1 56541U 23065AQ  24091.75725719  .00002357  00000+0  18943-3 0  9990
2 56541  43.0012 110.0366 0001302 265.7657  94.3036 15.02541573 49207
STARLINK-6266           
1 56542U 23065AR  24091.43041536  .00001370  00000+0  11647-3 0  9992
2 56542  43.0018 111.8861 0000798 286.9881  73.0873 15.02542751 49937
STARLINK-6228           
1 56543U 23065AS  24091.35173357  .00001161  00000+0  10101-3 0  9993
2 56543  43.0033 112.1561 0001211 278.3395  81.7310 15.02537903 49926
STARLINK-6226           
1 56544U 23065AT  24091.42800756 -.00033025  00000+0 -24899-2 0  9996
2 56544  43.0009 111.8657 0000483 195.8631 164.2196 15.01792560 49939
STARLINK-6086           
1 56545U 23065AU  24091.41376397  .00001923  00000+0  15734-3 0  9994
2 56545  43.0012 111.7590 0001376 266.9211  93.1474 15.02538771 49937
STARLINK-6187           
1 56546U 23065AV  24091.35506399 -.00000309  00000+0 -78206-5 0  9999
2 56546  43.0034 112.1815 0000863 268.2235  91.8508 15.02538094 49928
STARLINK-6291           
1 56547U 23065AW  24091.47794563  .00076041  00000+0  56482-2 0  9998
2 56547  42.9991 111.3758 0001217 270.1431  89.9272 15.02099239 49941
STARLINK-6244           
1 56548U 23065AX  24091.48357818  .00001997  00000+0  16286-3 0  9995
2 56548  43.0004 111.4219 0001024 274.7828  85.2897 15.02537632 49944
STARLINK-6263           
1 56549U 23065AY  24091.46804424  .00006542  00000+0  49912-3 0  9997
2 56549  43.0015 111.3058 0000667 216.0097 144.0701 15.02518316 49942
STARLINK-6255           
1 56550U 23065AZ  24091.74281662 -.00003867  00000+0 -27122-3 0  9991
2 56550  43.0018 109.9282 0001563 264.0809  95.9856 15.02554836 49200
STARLINK-6199           
1 56551U 23065BA  24091.46359678  .00002612  00000+0  20829-3 0  9996
2 56551  43.0015 111.2698 0001176 271.1815  88.8893 15.02542290 49945
STARLINK-5802           
1 56552U 23065BB  24091.47026303  .00008429  00000+0  63798-3 0  9998
2 56552  43.0014 111.3220 0001066 258.8045 101.2678 15.02554439 49941
STARLINK-6074           
1 56553U 23065BC  24091.46027240  .00001898  00000+0  15554-3 0  9999
2 56553  43.0017 111.2457 0001018 256.6834 103.3895 15.02535436 49945
STARLINK-6295           
1 56554U 23065BD  24091.46471063 -.00000123  00000+0  59349-5 0  9999
2 56554  43.0022 111.2794 0000967 255.8122 104.2613 15.02534579 49944
