OBJECT_NAME,OBJECT_ID,EPOCH,MEAN_MOTION,ECCENTRICITY,INCLINATION,RA_OF_ASC_NODE,ARG_OF_PERICENTER,MEAN_ANOMALY,EPHEMERIS_TYPE,CLASSIFICATION_TYPE,NORAD_CAT_ID,ELEMENT_SET_NO,REV_AT_EPOCH,BSTAR,MEAN_MOTION_DOT,MEAN_MOTION_DDOT
STARLINK-6329,2023-065Y,2024-03-31T09:24:14.039424,15.02543102,.0001097,43.0016,98.5865,277.4130,82.6588,0,U,56525,999,5008,.25277E-3,.3213E-4,0
STARLINK-6317,2023-065Z,2024-03-31T11:12:44.672544,15.02536692,.0001191,43.0032,98.2816,261.9986,98.0722,0,U,56526,999,5009,.784E-4,.856E-5,0
STARLINK-6335,2023-065AA,2024-03-31T17:24:28.456704,15.02538535,.0001062,42.9999,96.7771,260.2636,99.8086,0,U,56527,999,4935,.47465E-3,.6214E-4,0
STARLINK-6337,2023-065AB,2024-03-31T09:29:01.258080,15.02543874,.0000885,43.0020,98.6020,278.4141,81.6601,0,U,56528,999,5008,.6157E-4,.628E-5,0
STARLINK-6307,2023-065AC,2024-03-31T09:13:34.983552,15.02537227,.000113,43.0027,86.3630,254.7909,105.2808,0,U,56529,999,5022,.15833E-3,.1936E-4,0
STARLINK-6318,2023-065AD,2024-03-31T07:20:38.687712,15.02537506,.0001303,43.0027,73.6196,266.1433,93.9261,0,U,56530,999,5036,.21805E-3,.2743E-4,0
STARLINK-6280,2023-065AE,2024-03-31T09:08:47.716512,15.02545860,.0001719,43.0031,86.3409,272.5357,87.5288,0,U,56531,999,5022,.23098E-3,.2919E-4,0
STARLINK-6319,2023-065AF,2024-03-31T09:23:09.772512,15.02546834,.0001463,43.0011,86.4140,284.3146,75.7534,0,U,56532,999,5022,-.24061E-3,-.3453E-4,0
STARLINK-6310,2023-065AG,2024-03-31T16:57:50.315904,15.02534426,.0001096,43.0010,84.4804,264.8416,95.2301,0,U,56533,999,4949,.13596E-3,.1633E-4,0
STARLINK-6308,2023-065AH,2024-03-31T09:18:22.293792,15.02542107,.0001372,43.0023,86.3872,266.4827,93.5858,0,U,56534,999,5022,.27708E-3,.3542E-4,0
STARLINK-6309,2023-065AJ,2024-03-31T10:34:11.497440,15.02551452,.0001222,43.0018,111.9605,261.5126,98.5578,0,U,56535,999,4993,.13718E-2,.18383E-3,0
STARLINK-6312,2023-065AK,2024-03-31T10:35:46.884768,15.02543096,.0001009,43.0016,111.9705,271.7055,88.3672,0,U,56536,999,4993,.17122E-3,.211E-4,0
STARLINK-6311,2023-065AL,2024-03-31T18:28:02.112096,15.02536503,.0001067,43.0011,110.1301,266.7771,93.2949,0,U,56537,999,4920,.84458E-4,.938E-5,0
STARLINK-6314,2023-065AM,2024-03-31T16:06:41.544288,15.02539987,.0001005,43.0031,84.2243,273.4734,86.5993,0,U,56538,999,4949,-.1561E-4,-.414E-5,0
STARLINK-6135,2023-065AN,2024-03-31T18:13:35.469120,15.02677587,.0001258,43.0020,110.0561,282.9691,77.1011,0,U,56539,999,4920,-.55589E-2,-.74781E-3,0
STARLINK-6136,2023-065AP,2024-03-31T10:40:36.050016,15.02554024,.0001044,43.0011,111.9964,266.0162,94.0561,0,U,56540,999,4993,.11518E-2,.15397E-3,0
STARLINK-6249,2023-065AQ,2024-03-31T18:10:27.021216,15.02541573,.0001302,43.0012,110.0366,265.7657,94.3036,0,U,56541,999,4920,.18943E-3,.2357E-4,0
STARLINK-6266,2023-065AR,2024-03-31T10:19:47.887104,15.02542751,.0000798,43.0018,111.8861,286.9881,73.0873,0,U,56542,999,4993,.11647E-3,.137E-4,0
STARLINK-6228,2023-065AS,2024-03-31T08:26:29.780448,15.02537903,.0001211,43.0033,112.1561,278.3395,81.7310,0,U,56543,999,4992,.10101E-3,.1161E-4,0
STARLINK-6226,2023-065AT,2024-03-31T10:16:19.853184,15.01792560,.0000483,43.0009,111.8657,195.8631,164.2196,0,U,56544,999,4993,-.24899E-2,-.33025E-3,0
STARLINK-6086,2023-065AU,2024-03-31T09:55:49.207008,15.02538771,.0001376,43.0012,111.7590,266.9211,93.1474,0,U,56545,999,4993,.15734E-3,.1923E-4,0
STARLINK-6187,2023-065AV,2024-03-31T08:31:17.528736,15.02538094,.0000863,43.0034,112.1815,268.2235,91.8508,0,U,56546,999,4992,-.78206E-5,-.309E-5,0
STARLINK-6291,2023-065AW,2024-03-31T11:28:14.502432,15.02099239,.0001217,42.9991,111.3758,270.1431,89.9272,0,U,56547,999,4994,.56482E-2,.76041E-3,0
STARLINK-6244,2023-065AX,2024-03-31T11:36:21.154752,15.02537632,.0001024,43.0004,111.4219,274.7828,85.2897,0,U,56548,999,4994,.16286E-3,.1997E-4,0
STARLINK-6263,2023-065AY,2024-03-31T11:13:59.022336,15.02518316,.0000667,43.0015,111.3058,216.0097,144.0701,0,U,56549,999,4994,.49912E-3,.6542E-4,0
STARLINK-6255,2023-065AZ,2024-03-31T17:49:39.355968,15.02554836,.0001563,43.0018,109.9282,264.0809,95.9856,0,U,56550,999,4920,-.27122E-3,-.3867E-4,0
STARLINK-6199,2023-065BA,2024-03-31T11:07:34.761792,15.02542290,.0001176,43.0015,111.2698,271.1815,88.8893,0,U,56551,999,4994,.20829E-3,.2612E-4,0
STARLINK-5802,2023-065BB,2024-03-31T11:17:10.725792,15.02554439,.0001066,43.0014,111.3220,258.8045,101.2678,0,U,56552,999,4994,.63798E-3,.8429E-4,0
STARLINK-6074,2023-065BC,2024-03-31T11:02:47.535360,15.02535436,.0001018,43.0017,111.2457,256.6834,103.3895,0,U,56553,999,4994,.15554E-3,.1898E-4,0
STARLINK-6295,2023-065BD,2024-03-31T11:09:10.998432,15.02534579,.0000967,43.0022,111.2794,255.8122,104.2613,0,U,56554,999,4994,.59349E-5,-.123E-5,0
